[{"OBJECT_NAME":"GAOFEN-9 03","OBJECT_ID":"2020-039A","EPOCH":"2026-03-09T21:55:15.121344","MEAN_MOTION":15.30529116,"ECCENTRICITY":0.0013094,"INCLINATION":97.5219,"RA_OF_ASC_NODE":201.2158,"ARG_OF_PERICENTER":77.4533,"MEAN_ANOMALY":282.8172,"EPHEMERIS_TYPE":0,"CLASSIFICATION_TYPE":"U","NORAD_CAT_ID":45794,"ELEMENT_SET_NO":999,"REV_AT_EPOCH":31856,"BSTAR":0.00039258132,"MEAN_MOTION_DOT":0.00011544,"MEAN_MOTION_DDOT":0},{"OBJECT_NAME":"STARLINK-31229","OBJECT_ID":"2024-031X","EPOCH":"2026-03-09T22:06:25.308000","MEAN_MOTION":15.30189928,"ECCENTRICITY":0.00010189,"INCLINATION":53.1598,"RA_OF_ASC_NODE":295.9694,"ARG_OF_PERICENTER":105.0075,"MEAN_ANOMALY":255.1039,"EPHEMERIS_TYPE":0,"CLASSIFICATION_TYPE":"U","NORAD_CAT_ID":58986,"ELEMENT_SET_NO":999,"REV_AT_EPOCH":11654,"BSTAR":1.6318058e-5,"MEAN_MOTION_DOT":1.24e-6,"MEAN_MOTION_DDOT":0}]
